ONEWEB-0202             
1 48224U 21031Q   24022.25135753 -.00000196  00000+0 -56296-3 0  9996
2 48224  87.8957 104.2711 0002358  81.4965 278.6432 13.14496411133152
ONEWEB-0204             
1 48225U 21031R   24022.74216950  .00000192  00000+0  48463-3 0  9991
2 48225  87.8958 104.1856 0001484 117.3139 242.8142 13.14504439133122
ONEWEB-0205             
1 48226U 21031S   24022.71758730 -.00000161  00000+0 -46900-3 0  9998
2 48226  87.8971 104.1614 0001632  95.0438 265.0878 13.14503762133131
ONEWEB-0206             
1 48227U 21031T   24022.23391254  .00000024  00000+0  29033-4 0  9995
2 48227  87.8971 104.2511 0001515  97.6887 262.4415 13.14504634133019
ONEWEB-0182             
1 48228U 21031U   24022.22915633  .00000117  00000+0  28197-3 0  9990
2 48228  87.8968 104.2728 0001623 108.0598 252.0708 13.14501492133224
ONEWEB-0186             
1 48229U 21031V   24022.24026134 -.00000039  00000+0 -13895-3 0  9996
2 48229  87.8973 104.2355 0001818  99.8208 260.3127 13.14502827133172
ONEWEB-0181             
1 48230U 21031W   24022.29417596  .00000200  00000+0  50546-3 0  9991
2 48230  87.8964 104.2935 0001874  99.1747 260.9595 13.14502012133037
ONEWEB-0188             
1 48231U 21031X   24022.71282654 -.00000232  00000+0 -66127-3 0  9993
2 48231  87.8963 104.2078 0001700 101.2256 258.9065 13.14503602132992
